satNo,name,line1,line2,inclination,apogee,raan,argument_of_perigee,eccentricity,mean_motion,hdbscan_labels
54796,STARLINK-5415,1 54796U 22175AQ  26026.56481637 -.00000166  00000-0  76798-5 0  9990,2 54796  53.2143 217.9795 0001753 101.9045 258.2143 15.08841022173778,53.2143,548.0899690052969,217.9795,101.9045,0.0001753,15.08841022,1615
54797,STARLINK-5435,1 54797U 22175AR  26026.97472353 -.00000564  00000-0 -17320-4 0  9999,2 54797  53.2150 231.2315 0001339  95.0191 265.0954 15.08838663173626,53.215,547.810780372533,231.2315,95.0191,0.0001339,15.08838663,1752
54798,STARLINK-5420,1 54798U 22175AS  26026.89326234  .00003945  00000-0  26585-3 0  9993,2 54798  53.2141 206.5168 0001404  92.7451 267.3702 15.08835284173963,53.2141,547.8660763574541,206.5168,92.7451,0.0001404,15.08835284,-1
54799,STARLINK-5421,1 54799U 22175AT  26026.91167889  .00001534  00000-0  11448-3 0  9990,2 54799  53.2160 206.6324 0001321  89.4406 270.6737 15.08833005173965,53.216,547.8156247871229,206.6324,89.4406,0.0001321,15.08833005,1708
54800,STARLINK-5428,1 54800U 22175AU  26026.83483156 -.00001504  00000-0 -76409-4 0  9990,2 54800  53.2177 221.7891 0001278  88.9759 271.1379 15.08844810173749,53.2177,547.7497899921965,221.7891,88.9759,0.0001278,15.0884481,1558
54801,STARLINK-5429,1 54801U 22175AV  26026.88173078  .00002267  00000-0  16050-3 0  9995,2 54801  53.2146 231.3633 0001808  98.6898 261.4299 15.08841784173614,53.2146,548.1256877836036,231.3633,98.6898,0.0001808,15.08841784,1751
54802,STARLINK-5426,1 54802U 22175AW  26026.80397657  .00000791  00000-0  67761-4 0  9995,2 54802  53.2163 176.6121 0001337  86.5902 273.5243 15.08841097174370,53.2163,547.8019560356904,176.6121,86.5902,0.0001337,15.08841097,1508
54803,STARLINK-5430,1 54803U 22175AX  26027.29022239  .00002033  00000-0  14582-3 0  9994,2 54803  53.2145 229.6353 0001447  84.6097 275.5060 15.08837416173674,53.2145,547.8893056647908,229.6353,84.6097,0.0001447,15.08837416,1580
54804,STARLINK-5422,1 54804U 22175AY  26027.20508507 -.00002705  00000-0 -15198-3 0  9995,2 54804  53.2162 214.8683 0000294  63.4678 296.6345 15.08833641173873,53.2162,547.103212206291,214.8683,63.4678,2.94e-05,15.08833641,1530
54805,STARLINK-5417,1 54805U 22175AZ  26027.22352559  .00000512  00000-0  50227-4 0  9997,2 54805  53.2162 214.9820 0001297  86.7771 273.3369 15.08846807173870,53.2162,547.7568291543889,214.982,86.7771,0.0001297,15.08846807,1530
54806,STARLINK-5412,1 54806U 22175BA  26026.94751852  .00003308  00000-0  22582-3 0  9993,2 54806  53.2140 216.1027 0001977 101.4007 258.7207 15.08845725173834,53.214,548.2305514781028,216.1027,101.4007,0.0001977,15.08845725,1710
54807,STARLINK-5410,1 54807U 22175BB  26027.21614350  .00001367  00000-0  10390-3 0  9993,2 54807  53.2185 214.9338 0000825  90.1261 269.9826 15.08861127173871,53.2185,547.3865327351559,214.9338,90.1261,8.25e-05,15.08861127,1530
54808,STARLINK-5413,1 54808U 22175BC  26027.33335648  .00050432  00000-0  31661-2 0  9997,2 54808  53.2142 199.9490 0001169  96.8431 322.3677 15.08819167  5813,53.2142,547.7527755049579,199.949,96.8431,0.0001169,15.08819167,1450
54809,STARLINK-5414,1 54809U 22175BD  26025.55278752  .00001867  00000-0  13536-3 0  9992,2 54809  53.2159 222.3211 0001409  94.2536 265.8617 15.08847236173627,53.2159,547.8329977257522,222.3211,94.2536,0.0001409,15.08847236,-1
54810,STARLINK-5408,1 54810U 22175BE  26027.22951029  .00001136  00000-0  89382-4 0  9997,2 54810  53.2186 210.0134 0000144 253.7576 106.3401 15.08846543173943,53.2186,546.9600068925507,210.0134,253.7576,1.44e-05,15.08846543,1442
54811,STARLINK-5424,1 54811U 22175BF  26026.85879335 -.00024827  00000-0 -15389-2 0  9993,2 54811  53.2148 211.9507 0001267 129.8274 230.2829 15.09036221173880,53.2148,547.1571043205429,211.9507,129.8274,0.0001267,15.09036221,-1
54818,GAOFEN 11 04,1 54818U 22176A   26025.85928722  .00004023  00000-0  17209-3 0  9993,2 54818  97.4004 160.8003 0004859  91.0025 269.1769 15.23383944171587,97.4004,506.11939787608105,160.8003,91.0025,0.0004859,15.23383944,-1
54820,STARLINK-5382,1 54820U 22177A   26026.95153942  .00000105  00000-0  22824-4 0  9990,2 54820  43.0067   0.4011 0001117 271.5672  88.5042 15.02533861170679,43.0067,566.9980050684046,0.4011,271.5672,0.0001117,15.02533861,964
54821,STARLINK-5385,1 54821U 22177B   26027.20524259  .00000547  00000-0  55593-4 0  9992,2 54821  43.0052 358.8690 0001301 271.5504  88.5190 15.02536391170716,43.0052,567.1178616042976,358.869,271.5504,0.0001301,15.02536391,906
54822,STARLINK-5101,1 54822U 22177C   26027.20079489 -.00002692  00000-0 -18426-3 0  9991,2 54822  43.0058 358.8320 0001349 271.6536  88.4152 15.02545132170711,43.0058,567.1242519222051,358.832,271.6536,0.0001349,15.02545132,906
54823,STARLINK-5106,1 54823U 22177D   26026.94820136 -.00000058  00000-0  10814-4 0  9992,2 54823  43.0060   0.3740 0001452 268.1132  91.9544 15.02540177170671,43.006,567.2109585721055,0.374,268.1132,0.0001452,15.02540177,964
54824,STARLINK-4643,1 54824U 22177E   26027.21078727 -.00000117  00000-0  64087-5 0  9993,2 54824  43.0059 358.9072 0001511 276.3586  83.7085 15.02536628170710,43.0059,567.2628135295902,358.9072,276.3586,0.0001511,15.02536628,906
54826,STARLINK-5107,1 54826U 22177G   26026.20474095 -.00000079  00000-0  92583-5 0  9990,2 54826  43.0084   4.2589 0001378 281.0855  78.9832 15.02540644170569,43.0084,567.1581856462341,4.2589,281.0855,0.0001378,15.02540644,771
54827,STARLINK-5383,1 54827U 22177H   26025.99753639  .00000107  00000-0  22993-4 0  9998,2 54827  43.0028   5.2785 0001054 263.4216  96.6507 15.02535780170542,43.0028,566.948393243812,5.2785,263.4216,0.0001054,15.0253578,730
54828,STARLINK-5381,1 54828U 22177J   26025.99420294 -.00000081  00000-0  90504-5 0  9993,2 54828  43.0025   5.2550 0001322 247.6948 112.3754 15.02547370170531,43.0025,567.098632109359,5.255,247.6948,0.0001322,15.0254737,730
54830,STARLINK-5394,1 54830U 22177L   26027.18526247 -.00000705  00000-0 -37154-4 0  9999,2 54830  43.0057 358.7134 0001066 269.5206  90.5515 15.02532767170714,43.0057,566.9659929352962,358.7134,269.5206,0.0001066,15.02532767,906
54831,STARLINK-5395,1 54831U 22177M   26026.00752458  .00001697  00000-0  14064-3 0  9998,2 54831  43.0050   5.3518 0001392 272.5833  87.4850 15.02546303170539,43.005,567.1504770275019,5.3518,272.5833,0.0001392,15.02546303,730
54833,STARLINK-5391,1 54833U 22177P   26027.15128919  .00087890  00000-0  55213-3 0  9996,2 54833  42.9980 343.8290 0002185 279.6283  80.4339 15.75739160170884,42.998,351.13410347156787,343.829,279.6283,0.0002185,15.7573916,-1
54834,STARLINK-5386,1 54834U 22177Q   26026.98470856 -.00001951  00000-0 -12934-3 0  9996,2 54834  43.0050 359.7851 0000863 269.4035  90.6709 15.02551323170693,43.005,566.7680472592087,359.7851,269.4035,8.63e-05,15.02551323,1164
54835,STARLINK-5389,1 54835U 22177R   26026.98915799  .00000212  00000-0  30736-4 0  9995,2 54835  43.0043 359.8229 0001177 276.7855  83.2853 15.02534600170682,43.0043,567.0373534903536,359.8229,276.7855,0.0001177,15.025346,1164
54836,STARLINK-5384,1 54836U 22177S   26026.91490207  .00001257  00000-0  10811-3 0  9992,2 54836  43.0061   0.1211 0001584 261.0406  99.0257 15.02542488170687,43.0061,567.2954153099572,0.1211,261.0406,0.0001584,15.02542488,1060
54837,STARLINK-5369,1 54837U 22177T   26026.91601485  .00000279  00000-0  35691-4 0  9992,2 54837  43.0016   0.1318 0001057 276.8873  83.1849 15.02535705170677,43.0016,566.9507052837033,0.1318,276.8873,0.0001057,15.02535705,1060
54838,STARLINK-5372,1 54838U 22177U   26026.97472649  .00000251  00000-0  33622-4 0  9999,2 54838  43.0041 359.7135 0001002 268.9042  91.1686 15.02532338170684,43.0041,566.9229152866444,359.7135,268.9042,0.0001002,15.02532338,1163
54840,STARLINK-5368,1 54840U 22177W   26026.96585242  .00000085  00000-0  21366-4 0  9992,2 54840  43.0073 359.6430 0001273 268.5206  91.5491 15.02532805170684,43.0073,567.1094765440859,359.643,268.5206,0.0001273,15.02532805,1133
54841,STARLINK-4659,1 54841U 22177X   26026.97805967  .00003516  00000-0  27519-3 0  9990,2 54841  43.0052 359.7343 0001304 270.6991  89.3702 15.02541185170687,43.0052,567.1051849417239,359.7343,270.6991,0.0001304,15.02541185,1163
54842,STARLINK-5387,1 54842U 22177Y   26026.95919434  .00000072  00000-0  20420-4 0  9993,2 54842  43.0065 359.5977 0001630 274.0796  85.9860 15.02532645170684,43.0065,567.3576280880301,359.5977,274.0796,0.000163,15.02532645,1133
54843,STARLINK-5304,1 54843U 22177Z   26026.97139552  .00001030  00000-0  91336-4 0  9990,2 54843  43.0056 359.6884 0001099 265.3008  94.7709 15.02540132170681,43.0056,566.9662138070613,359.6884,265.3008,0.0001099,15.02540132,1133
54844,STARLINK-5388,1 54844U 22177AA  26026.95474085  .00002723  00000-0  21658-3 0  9991,2 54844  42.9987 359.5398 0001299 258.7305 101.3391 15.02526744170685,42.9987,567.1461716639092,359.5398,258.7305,0.0001299,15.02526744,-1
54845,STARLINK-5082,1 54845U 22177AB  26027.22843302 -.00000002  00000-0  14930-4 0  9990,2 54845  43.0029 358.1691 0001496 275.2914  84.7757 15.02532803170723,43.0029,567.2641828490365,358.1691,275.2914,0.0001496,15.02532803,855
54846,STARLINK-5360,1 54846U 22177AC  26027.22177371  .00000378  00000-0  43049-4 0  9995,2 54846  43.0067 358.1278 0001656 263.2877  96.7777 15.02535847170726,43.0067,567.3658074594624,358.1278,263.2877,0.0001656,15.02535847,855
54847,STARLINK-5061,1 54847U 22177AD  26026.91652756  .00000826  00000-0  76205-4 0  9994,2 54847  43.0029 334.1225 0001377 257.5312 102.5377 15.02538422170972,43.0029,567.1643321646899,334.1225,257.5312,0.0001377,15.02538422,850
54848,STARLINK-5432,1 54848U 22177AE  26026.62382589 -.00000046  00000-0  11716-4 0  9998,2 54848  43.0080 349.2251 0003140 267.9603  92.0880 15.02543921170774,43.008,568.3704309665188,349.2251,267.9603,0.000314,15.02543921,668
54850,STARLINK-5087,1 54850U 22177AG  26026.95179078  .00002058  00000-0  16738-3 0  9996,2 54850  43.0042 347.3842 0000879 269.3499  90.7242 15.02527505170828,43.0042,566.852464783323,347.3842,269.3499,8.79e-05,15.02527505,-1
